CUBEBUG-2 (LO-74)       
1 39440U 13066AA  26156.80918561  .00005560  00000+0  51354-3 0  9990
2 39440  97.8908 105.7402 0059434  65.9901 294.7524 14.93668030675299
FUNCUBE-1 (AO-73)       
1 39444U 13066AE  26157.18462751  .00009267  00000+0  57636-3 0  9998
2 39444  97.8278 128.4023 0034656 239.5624 120.2179 15.09358417678008
UWE-3                   
1 39446U 13066AG  26157.65461373  .00005074  00000+0  43622-3 0  9993
2 39446  97.8693 113.6587 0049031 356.7161   3.3731 14.96941234676006
UNISAT-6                
1 40012U 14033C   26157.71175127  .00004181  00000+0  45042-3 0  9991
2 40012  97.7873 310.6096 0046479 102.8244 257.8172 14.88189807644602
DUCHIFAT-1              
1 40021U 14033M   26157.14150127  .00131825  00000+0  14668-2 0  9996
2 40021  98.0474 214.7704 0004492 136.7008 223.4602 15.62418709654029
QB50P1                  
1 40025U 14033R   26157.60453558  .00009284  00000+0  45860-3 0  9997
2 40025  98.0970 168.0100 0007028 258.4683 101.5761 15.18097081651424
LILACSAT-2              
1 40908U 15049K   26157.04825478  .00022779  00000+0  39229-3 0  9993
2 40908  97.4656 193.4688 0005322 299.3702  60.7018 15.51071560594026
FOX-1A (AO-85)          
1 40967U 15058D   26157.62044007  .00003329  00000+0  30158-3 0  9995
2 40967  64.7764 311.8208 0129891  60.7292 300.6731 14.90916620111990
CAS-2T & KS-1Q          
1 41847U 16066G   26157.50497052  .00002047  00000+0  29425-3 0  9993
2 41847  98.3816 233.3631 0342402 161.8018 199.5790 14.44659219503252
RADFXSAT (FOX-1B)       
1 43017U 17073E   26157.62389250  .00011671  00000+0  50849-3 0  9993
2 43017  97.4716  25.0553 0151174   5.8791 354.4168 15.12539966463797
DIWATA-2B               
1 43678U 18084H   26157.83310244  .00003156  00000+0  25599-3 0  9992
2 43678  98.1164 353.5930 0011938 204.2968 155.7693 15.00403310414664
ES'HAIL 2               
1 43700U 18090A   26157.89851705  .00000158  00000+0  00000+0 0  9998
2 43700   0.0137  28.1745 0001924  82.6526 133.7487  1.00273537 27571
FOX-1CLIFF (AO-95)      
1 43770U 18099N   26157.13129568  .00016192  00000+0  62215-3 0  9991
2 43770  97.4387 217.4205 0009175  36.3927 323.7934 15.26474352411538
ITASAT                  
1 43786U 18099AE  26157.61340441  .00008490  00000+0  40880-3 0  9992
2 43786  97.4030 209.3372 0013231  36.5180 323.6954 15.18923323411300
JY1SAT (JO-97)          
1 43803U 18099AX  26157.13319170  .00023609  00000+0  73456-3 0  9998
2 43803  97.4134 219.9330 0004154 316.9785  43.1132 15.33299760411935
UWE-4                   
1 43880U 18111E   26157.59884956  .00041427  00000+0  86289-3 0  9993
2 43880  97.5857  85.5068 0007550  22.5436 337.6143 15.45454015409146
TIANYAN 01              
1 44881U 19093C   26157.81317560  .00000637  00000+0  77918-4 0  9990
2 44881  97.7528 230.2975 0014786 117.8632 242.4084 14.86500407349877
RS-44 & BREEZE-KM R/B   
1 44909U 19096E   26157.76340289  .00000011  00000+0 -32385-5 0  9999
2 44909  82.5218 346.6331 0217706 168.4833 192.1366 12.79748548301014
SALSAT                  
1 46495U 20068K   26157.74488442  .00010129  00000+0  35498-3 0  9990
2 46495  97.8851 160.1753 0009050 349.8452  10.2602 15.29647917313762
XW-3 (CAS-9)            
1 50466U 21131B   26157.84995713  .00000417  00000+0  14260-3 0  9993
2 50466  98.4975 250.2957 0005159 120.3150 239.8550 14.41347595233628
GREENCUBE (IO-117)      
1 53109U 22080E   26152.46502029 -.00000003  00000+0  00000+0 0  9996
2 53109  70.1435 303.7143 0008869 293.3663  66.6064  6.42583280 91055
UMKA 1 (RS40S)          
1 57172U 23091G   26157.82932346  .00007341  00000+0  33627-3 0  9993
2 57172  97.5051 216.5671 0013718 150.2225 209.9794 15.20698386162430
CUBESX-HSE 3 (RS42S)    
1 57178U 23091N   26157.84772478  .00016038  00000+0  53719-3 0  9996
2 57178  97.5091 223.3063 0012082 126.5260 233.7095 15.30952262162840
MONITOR-3 (RS58S)       
1 57180U 23091Q   26157.84957963  .00012806  00000+0  47542-3 0  9999
2 57180  97.5084 221.2214 0012974 132.8033 227.4299 15.27631665162717
MONITOR-4 (RS57S)       
1 57182U 23091S   26157.82923943  .00011468  00000+0  42489-3 0  9998
2 57182  97.5077 221.1714 0012950 133.1357 227.0967 15.27727015162715
MONITOR-2 (RS39S)       
1 57184U 23091U   26157.83766094  .00006102  00000+0  29592-3 0  9992
2 57184  97.5074 216.1880 0012265 142.9965 217.2118 15.18813242162384
SVYATOBOR 1 (RS60S)     
1 57187U 23091X   26157.83351933  .00010110  00000+0  39012-3 0  9999
2 57187  97.5089 221.5945 0010837 125.4585 234.7666 15.26438179162734
VIZARD-METEO (RS38S)    
1 57189U 23091Z   26157.85359706  .00019633  00000+0  56652-3 0  9997
2 57189  97.5090 227.1344 0008733 108.2854 251.9340 15.35694753163107
POLYTECH-UNIVERSE 3 (R*)
1 57191U 23091AB  26157.86622572  .00005620  00000+0  27086-3 0  9995
2 57191  97.5048 215.7210 0016166 160.1547 200.0320 15.19013332162385
UTMN 2 (RS27S)          
1 57203U 23091AP  26157.80566044  .00015412  00000+0  50351-3 0  9995
2 57203  97.5087 224.8849 0009459 114.5963 245.6265 15.31793943162956
