OBJECT_NAME,OBJECT_ID,EPOCH,MEAN_MOTION,ECCENTRICITY,INCLINATION,RA_OF_ASC_NODE,ARG_OF_PERICENTER,MEAN_ANOMALY,EPHEMERIS_TYPE,CLASSIFICATION_TYPE,NORAD_CAT_ID,ELEMENT_SET_NO,REV_AT_EPOCH,BSTAR,MEAN_MOTION_DOT,MEAN_MOTION_DDOT
CUBEBUG-2 (LO-74),2013-066AA,2026-06-05T19:25:13.636704,14.93668030,.00594347,97.8908,105.7402,65.9901,294.7524,0,U,39440,999,67529,.51354385E-3,.556E-4,0
FUNCUBE-1 (AO-73),2013-066AE,2026-06-06T04:25:51.816864,15.09358417,.0034656,97.8278,128.4023,239.5624,120.2179,0,U,39444,999,67800,.57636E-3,.9267E-4,0
UWE-3,2013-066AG,2026-06-06T15:42:38.626272,14.96941234,.0049031,97.8693,113.6587,356.7161,3.3731,0,U,39446,999,67600,.43622E-3,.5074E-4,0
UNISAT-6,2014-033C,2026-06-06T17:04:55.309728,14.88189807,.0046479,97.7873,310.6096,102.8244,257.8172,0,U,40012,999,64460,.45042E-3,.4181E-4,0
DUCHIFAT-1,2014-033M,2026-06-06T03:23:45.709728,15.62418709,.00044927,98.0474,214.7704,136.7008,223.4602,0,U,40021,999,65402,.14667952E-2,.131825E-2,0
QB50P1,2014-033R,2026-06-06T14:30:31.874112,15.18097081,.0007028,98.0970,168.0100,258.4683,101.5761,0,U,40025,999,65142,.4586E-3,.9284E-4,0
LILACSAT-2,2015-049K,2026-06-06T01:09:29.212992,15.51071560,.00053222,97.4656,193.4688,299.3702,60.7018,0,U,40908,999,59402,.3922929E-3,.22779E-3,0
FOX-1A (AO-85),2015-058D,2026-06-06T14:53:26.022048,14.90916620,.0129891,64.7764,311.8208,60.7292,300.6731,0,U,40967,999,11199,.30158E-3,.3329E-4,0
CAS-2T & KS-1Q,2016-066G,2026-06-06T12:07:09.452928,14.44659219,.03424022,98.3816,233.3631,161.8018,199.5790,0,U,41847,999,50325,.29425275E-3,.2047E-4,0
RADFXSAT (FOX-1B),2017-073E,2026-06-06T14:58:24.312000,15.12539966,.0151174,97.4716,25.0553,5.8791,354.4168,0,U,43017,999,46379,.50849E-3,.11671E-3,0
DIWATA-2B,2018-084H,2026-06-06T19:59:40.050816,15.00403310,.0011938,98.1164,353.5930,204.2968,155.7693,0,U,43678,999,41466,.25599E-3,.3156E-4,0
ES'HAIL 2,2018-090A,2026-06-06T21:33:51.873120,1.00273537,.0001924,0.0137,28.1745,82.6526,133.7487,0,U,43700,999,2757,0,.158E-5,0
FOX-1CLIFF (AO-95),2018-099N,2026-06-06T03:09:03.946752,15.26474352,.00091754,97.4387,217.4205,36.3927,323.7934,0,U,43770,999,41153,.62214936E-3,.16192E-3,0
ITASAT,2018-099AE,2026-06-06T14:43:18.141024,15.18923323,.0013231,97.4030,209.3372,36.5180,323.6954,0,U,43786,999,41130,.4088E-3,.849E-4,0
JY1SAT (JO-97),2018-099AX,2026-06-06T03:11:47.762880,15.33299760,.00041542,97.4134,219.9330,316.9785,43.1132,0,U,43803,999,41193,.73456031E-3,.23609E-3,0
UWE-4,2018-111E,2026-06-06T14:22:20.601984,15.45454015,.000755,97.5857,85.5068,22.5436,337.6143,0,U,43880,999,40914,.86289E-3,.41427E-3,0
TIANYAN 01,2019-093C,2026-06-06T19:30:58.371840,14.86500407,.0014786,97.7528,230.2975,117.8632,242.4084,0,U,44881,999,34987,.77918E-4,.637E-5,0
RS-44 & BREEZE-KM R/B,2019-096E,2026-06-06T18:19:18.009696,12.79748548,.0217706,82.5218,346.6331,168.4833,192.1366,0,U,44909,999,30101,-.32385E-5,.11E-6,0
SALSAT,2020-068K,2026-06-06T17:52:38.013888,15.29647917,.000905,97.8851,160.1753,349.8452,10.2602,0,U,46495,999,31376,.35498E-3,.10129E-3,0
XW-3 (CAS-9),2021-131B,2026-06-06T20:23:56.296032,14.41347595,.0005159,98.4975,250.2957,120.3150,239.8550,0,U,50466,999,23362,.1426E-3,.417E-5,0
GREENCUBE (IO-117),2022-080E,2026-06-01T11:09:37.753056,6.42583280,.00088692,70.1435,303.7143,293.3663,66.6064,0,U,53109,999,9105,0,-.3E-7,0
UMKA 1 (RS40S),2023-091G,2026-06-06T19:54:13.546944,15.20698386,.0013718,97.5051,216.5671,150.2225,209.9794,0,U,57172,999,16243,.33627E-3,.7341E-4,0
CUBESX-HSE 3 (RS42S),2023-091N,2026-06-06T20:20:43.420992,15.30952262,.0012082,97.5091,223.3063,126.5260,233.7095,0,U,57178,999,16284,.53719E-3,.16038E-3,0
MONITOR-3 (RS58S),2023-091Q,2026-06-06T20:23:23.680032,15.27631665,.0012974,97.5084,221.2214,132.8033,227.4299,0,U,57180,999,16271,.47542E-3,.12806E-3,0
MONITOR-4 (RS57S),2023-091S,2026-06-06T19:54:06.286752,15.27727015,.001295,97.5077,221.1714,133.1357,227.0967,0,U,57182,999,16271,.42489E-3,.11468E-3,0
MONITOR-2 (RS39S),2023-091U,2026-06-06T20:06:13.905216,15.18813242,.0012265,97.5074,216.1880,142.9965,217.2118,0,U,57184,999,16238,.29592E-3,.6102E-4,0
SVYATOBOR 1 (RS60S),2023-091X,2026-06-06T20:00:16.070112,15.26438179,.0010837,97.5089,221.5945,125.4585,234.7666,0,U,57187,999,16273,.39012E-3,.1011E-3,0
VIZARD-METEO (RS38S),2023-091Z,2026-06-06T20:29:10.785984,15.35694753,.0008733,97.5090,227.1344,108.2854,251.9340,0,U,57189,999,16310,.56652E-3,.19633E-3,0
POLYTECH-UNIVERSE 3 (RS46S),2023-091AB,2026-06-06T20:47:21.902208,15.19013332,.0016166,97.5048,215.7210,160.1547,200.0320,0,U,57191,999,16238,.27086E-3,.562E-4,0
UTMN 2 (RS27S),2023-091AP,2026-06-06T19:20:09.062016,15.31793943,.0009459,97.5087,224.8849,114.5963,245.6265,0,U,57203,999,16295,.50351E-3,.15412E-3,0
